[{"languages":[{"iso639_1":"ps","iso639_2":"pus","name":"Pashto","nativeName":"پښتو"},{"iso639_1":"uz","iso639_2":"uzb","name":"Uzbek","nativeName":"Oʻzbek"},{"iso639_1":"tk","iso639_2":"tuk","name":"Turkmen","nativeName":"Türkmen"}]},{"languages":[{"iso639_1":"sv","iso639_2":"swe","name":"Swedish","nativeName":"svenska"}]},{"languages":[{"iso639_1":"sq","iso639_2":"sqi","name":"Albanian","nativeName":"Shqip"}]},{"languages":[{"iso639_1":"ar","iso639_2":"ara","name":"Arabic","nativeName":"العربية"}]},{"languages":[{"iso639_1":"en","iso639_2":"eng","name":"English","nativeName":"English"},{"iso639_1":"sm","iso639_2":"smo","name":"Samoan","nativeName":"gagana fa'a Samoa"}]},{"languages":[{"iso639_1":"ca","iso639_2":"cat","name":"Catalan","nativeName":"català"}]},{"languages":[{"iso639_1":"pt","iso639_2":"por","name":"Portuguese","nativeName":"Português"}]},{"languages":[{"iso639_1":"en","iso639_2":"eng","name":"English","nativeName":"English"}]},{"languages":[{"iso639_1":"en","iso639_2":"eng","name":"English","nativeName":"English"},{"iso639_1":"ru","iso639_2":"rus","name":"Russian","nativeName":"Русский"}]},{"languages":[{"iso639_1":"en","iso639_2":"eng","name":"English","nativeName":"English"}]},{"languages":[{"iso639_1":"es","iso639_2":"spa","name":"Spanish","nativeName":"Español"},{"iso639_1":"gn","iso639_2":"grn","name":"Guaraní","nativeName":"Avañe'ẽ"}]},{"languages":[{"iso639_1":"hy","iso639_2":"hye","name":"Armenian","nativeName":"Հայերեն"},{"iso639_1":"ru","iso639_2":"rus","name":"Russian","nativeName":"Русский"}]},{"languages":[{"iso639_1":"nl","iso639_2":"nld","name":"Dutch","nativeName":"Nederlands"},{"iso639_1":"pa","iso639_2":"pan","name":"(Eastern) Punjabi","nativeName":"ਪੰਜਾਬੀ"}]},{"languages":[{"iso639_1":"en","iso639_2":"eng","name":"English","nativeName":"English"}]},{"languages":[{"iso639_1":"de","iso639_2":"deu","name":"German","nativeName":"Deutsch"}]},{"languages":[{"iso639_1":"az","iso639_2":"aze","name":"Azerbaijani","nativeName":"azərbaycan dili"}]},{"languages":[{"iso639_1":"en","iso639_2":"eng","name":"English","nativeName":"English"}]},{"languages":[{"iso639_1":"ar","iso639_2":"ara","name":"Arabic","nativeName":"العربية"}]},{"languages":[{"iso639_1":"bn","iso639_2":"ben","name":"Bengali","nativeName":"বাংলা"}]},{"languages":[{"iso639_1":"en","iso639_2":"eng","name":"English","nativeName":"English"}]},{"languages":[{"iso639_1":"be","iso639_2":"bel","name":"Belarusian","nativeName":"беларуская мова"},{"iso639_1":"ru","iso639_2":"rus","name":"Russian","nativeName":"Русский"}]},{"languages":[{"iso639_1":"nl","iso639_2":"nld","name":"Dutch","nativeName":"Nederlands"},{"iso639_1":"fr","iso639_2":"fra","name":"French","nativeName":"français"},{"iso639_1":"de","iso639_2":"deu","name":"German","nativeName":"Deutsch"}]},{"languages":[{"iso639_1":"en","iso639_2":"eng","name":"English","nativeName":"English"},{"iso639_1":"es","iso639_2":"spa","name":"Spanish","nativeName":"Español"}]},{"languages":[{"iso639_1":"fr","iso639_2":"fra","name":"French","nativeName":"français"}]},{"languages":[{"iso639_1":"en","iso639_2":"eng","name":"English","nativeName":"English"}]},{"languages":[{"iso639_1":"dz","iso639_2":"dzo","name":"Dzongkha","nativeName":"རྫོང་ཁ"}]},{"languages":[{"iso639_1":"es","iso639_2":"spa","name":"Spanish","nativeName":"Español"},{"iso639_1":"ay","iso639_2":"aym","name":"Aymara","nativeName":"aymar aru"},{"iso639_1":"qu","iso639_2":"que","name":"Quechua","nativeName":"Runa Simi"}]},{"languages":[{"iso639_1":"nl","iso639_2":"nld","name":"Dutch","nativeName":"Nederlands"}]},{"languages":[{"iso639_1":"bs","iso639_2":"bos","name":"Bosnian","nativeName":"bosanski jezik"},{"iso639_1":"hr","iso639_2":"hrv","name":"Croatian","nativeName":"hrvatski jezik"},{"iso639_1":"sr","iso639_2":"srp","name":"Serbian","nativeName":"српски језик"}]},{"languages":[{"iso639_1":"en","iso639_2":"eng","name":"English","nativeName":"English"},{"iso639_1":"tn","iso639_2":"tsn","name":"Tswana","nativeName":"Setswana"}]},{"languages":[{"iso639_1":"no","iso639_2":"nor","name":"Norwegian","nativeName":"Norsk"},{"iso639_1":"nb","iso639_2":"nob","name":"Norwegian Bokmål","nativeName":"Norsk bokmål"},{"iso639_1":"nn","iso639_2":"nno","name":"Norwegian Nynorsk","nativeName":"Norsk nynorsk"}]},{"languages":[{"iso639_1":"pt","iso639_2":"por","name":"Portuguese","nativeName":"Português"}]},{"languages":[{"iso639_1":"en","iso639_2":"eng","name":"English","nativeName":"English"}]},{"languages":[{"iso639_1":"en","iso639_2":"eng","name":"English","nativeName":"English"}]},{"languages":[{"iso639_1":"en","iso639_2":"eng","name":"English","nativeName":"English"}]},{"languages":[{"iso639_1":"en","iso639_2":"eng","name":"English","nativeName":"English"}]},{"languages":[{"iso639_1":"ms","iso639_2":"msa","name":"Malay","nativeName":"bahasa Melayu"}]},{"languages":[{"iso639_1":"bg","iso639_2":"bul","name":"Bulgarian","nativeName":"български език"}]},{"languages":[{"iso639_1":"fr","iso639_2":"fra","name":"French","nativeName":"français"},{"iso639_1":"ff","iso639_2":"ful","name":"Fula","nativeName":"Fulfulde"}]},{"languages":[{"iso639_1":"fr","iso639_2":"fra","name":"French","nativeName":"français"},{"iso639_1":"rn","iso639_2":"run","name":"Kirundi","nativeName":"Ikirundi"}]},{"languages":[{"iso639_1":"km","iso639_2":"khm","name":"Khmer","nativeName":"ខ្មែរ"}]},{"languages":[{"iso639_1":"en","iso639_2":"eng","name":"English","nativeName":"English"},{"iso639_1":"fr","iso639_2":"fra","name":"French","nativeName":"français"}]},{"languages":[{"iso639_1":"en","iso639_2":"eng","name":"English","nativeName":"English"},{"iso639_1":"fr","iso639_2":"fra","name":"French","nativeName":"français"}]},{"languages":[{"iso639_1":"pt","iso639_2":"por","name":"Portuguese","nativeName":"Português"}]},{"languages":[{"iso639_1":"en","iso639_2":"eng","name":"English","nativeName":"English"}]},{"languages":[{"iso639_1":"fr","iso639_2":"fra","name":"French","nativeName":"français"},{"iso639_1":"sg","iso639_2":"sag","name":"Sango","nativeName":"yângâ tî sängö"}]},{"languages":[{"iso639_1":"fr","iso639_2":"fra","name":"French","nativeName":"français"},{"iso639_1":"ar","iso639_2":"ara","name":"Arabic","nativeName":"العربية"}]},{"languages":[{"iso639_1":"es","iso639_2":"spa","name":"Spanish","nativeName":"Español"}]},{"languages":[{"iso639_1":"zh","iso639_2":"zho","name":"Chinese","nativeName":"中文 (Zhōngwén)"}]},{"languages":[{"iso639_1":"en","iso639_2":"eng","name":"English","nativeName":"English"}]},{"languages":[{"iso639_1":"en","iso639_2":"eng","name":"English","nativeName":"English"}]},{"languages":[{"iso639_1":"es","iso639_2":"spa","name":"Spanish","nativeName":"Español"}]},{"languages":[{"iso639_1":"ar","iso639_2":"ara","name":"Arabic","nativeName":"العربية"},{"iso639_1":"fr","iso639_2":"fra","name":"French","nativeName":"français"}]},{"languages":[{"iso639_1":"fr","iso639_2":"fra","name":"French","nativeName":"français"},{"iso639_1":"ln","iso639_2":"lin","name":"Lingala","nativeName":"Lingála"}]},{"languages":[{"iso639_1":"fr","iso639_2":"fra","name":"French","nativeName":"français"},{"iso639_1":"ln","iso639_2":"lin","name":"Lingala","nativeName":"Lingála"},{"iso639_1":"kg","iso639_2":"kon","name":"Kongo","nativeName":"Kikongo"},{"iso639_1":"sw","iso639_2":"swa","name":"Swahili","nativeName":"Kiswahili"},{"iso639_1":"lu","iso639_2":"lub","name":"Luba-Katanga","nativeName":"Tshiluba"}]},{"languages":[{"iso639_1":"en","iso639_2":"eng","name":"English","nativeName":"English"}]},{"languages":[{"iso639_1":"es","iso639_2":"spa","name":"Spanish","nativeName":"Español"}]},{"languages":[{"iso639_1":"hr","iso639_2":"hrv","name":"Croatian","nativeName":"hrvatski jezik"}]},{"languages":[{"iso639_1":"es","iso639_2":"spa","name":"Spanish","nativeName":"Español"}]},{"languages":[{"iso639_1":"nl","iso639_2":"nld","name":"Dutch","nativeName":"Nederlands"},{"iso639_1":"pa","iso639_2":"pan","name":"(Eastern) Punjabi","nativeName":"ਪੰਜਾਬੀ"},{"iso639_1":"en","iso639_2":"eng","name":"English","nativeName":"English"}]},{"languages":[{"iso639_1":"el","iso639_2":"ell","name":"Greek (modern)","nativeName":"ελληνικά"},{"iso639_1":"tr","iso639_2":"tur","name":"Turkish","nativeName":"Türkçe"},{"iso639_1":"hy","iso639_2":"hye","name":"Armenian","nativeName":"Հայերեն"}]},{"languages":[{"iso639_1":"cs","iso639_2":"ces","name":"Czech","nativeName":"čeština"},{"iso639_1":"sk","iso639_2":"slk","name":"Slovak","nativeName":"slovenčina"}]},{"languages":[{"iso639_1":"da","iso639_2":"dan","name":"Danish","nativeName":"dansk"}]},{"languages":[{"iso639_1":"fr","iso639_2":"fra","name":"French","nativeName":"français"},{"iso639_1":"ar","iso639_2":"ara","name":"Arabic","nativeName":"العربية"}]},{"languages":[{"iso639_1":"en","iso639_2":"eng","name":"English","nativeName":"English"}]},{"languages":[{"iso639_1":"es","iso639_2":"spa","name":"Spanish","nativeName":"Español"}]},{"languages":[{"iso639_1":"es","iso639_2":"spa","name":"Spanish","nativeName":"Español"}]},{"languages":[{"iso639_1":"ar","iso639_2":"ara","name":"Arabic","nativeName":"العربية"}]},{"languages":[{"iso639_1":"es","iso639_2":"spa","name":"Spanish","nativeName":"Español"}]},{"languages":[{"iso639_1":"es","iso639_2":"spa","name":"Spanish","nativeName":"Español"},{"iso639_1":"fr","iso639_2":"fra","name":"French","nativeName":"français"}]},{"languages":[{"iso639_1":"ti","iso639_2":"tir","name":"Tigrinya","nativeName":"ትግርኛ"},{"iso639_1":"ar","iso639_2":"ara","name":"Arabic","nativeName":"العربية"},{"iso639_1":"en","iso639_2":"eng","name":"English","nativeName":"English"}]},{"languages":[{"iso639_1":"et","iso639_2":"est","name":"Estonian","nativeName":"eesti"}]},{"languages":[{"iso639_1":"am","iso639_2":"amh","name":"Amharic","nativeName":"አማርኛ"}]},{"languages":[{"iso639_1":"en","iso639_2":"eng","name":"English","nativeName":"English"}]},{"languages":[{"iso639_1":"fo","iso639_2":"fao","name":"Faroese","nativeName":"føroyskt"}]},{"languages":[{"iso639_1":"en","iso639_2":"eng","name":"English","nativeName":"English"},{"iso639_1":"fj","iso639_2":"fij","name":"Fijian","nativeName":"vosa Vakaviti"},{"iso639_1":"hi","iso639_2":"hin","name":"Hindi","nativeName":"हिन्दी"},{"iso639_1":"ur","iso639_2":"urd","name":"Urdu","nativeName":"اردو"}]},{"languages":[{"iso639_1":"fi","iso639_2":"fin","name":"Finnish","nativeName":"suomi"},{"iso639_1":"sv","iso639_2":"swe","name":"Swedish","nativeName":"svenska"}]},{"languages":[{"iso639_1":"fr","iso639_2":"fra","name":"French","nativeName":"français"}]},{"languages":[{"iso639_1":"fr","iso639_2":"fra","name":"French","nativeName":"français"}]},{"languages":[{"iso639_1":"fr","iso639_2":"fra","name":"French","nativeName":"français"}]},{"languages":[{"iso639_1":"fr","iso639_2":"fra","name":"French","nativeName":"français"}]},{"languages":[{"iso639_1":"fr","iso639_2":"fra","name":"French","nativeName":"français"}]},{"languages":[{"iso639_1":"en","iso639_2":"eng","name":"English","nativeName":"English"}]},{"languages":[{"iso639_1":"ka","iso639_2":"kat","name":"Georgian","nativeName":"ქართული"}]},{"languages":[{"iso639_1":"de","iso639_2":"deu","name":"German","nativeName":"Deutsch"}]},{"languages":[{"iso639_1":"en","iso639_2":"eng","name":"English","nativeName":"English"}]},{"languages":[{"iso639_1":"en","iso639_2":"eng","name":"English","nativeName":"English"}]},{"languages":[{"iso639_1":"el","iso639_2":"ell","name":"Greek (modern)","nativeName":"ελληνικά"}]},{"languages":[{"iso639_1":"kl","iso639_2":"kal","name":"Kalaallisut","nativeName":"kalaallisut"}]},{"languages":[{"iso639_1":"en","iso639_2":"eng","name":"English","nativeName":"English"}]},{"languages":[{"iso639_1":"fr","iso639_2":"fra","name":"French","nativeName":"français"}]},{"languages":[{"iso639_1":"en","iso639_2":"eng","name":"English","nativeName":"English"},{"iso639_1":"ch","iso639_2":"cha","name":"Chamorro","nativeName":"Chamoru"},{"iso639_1":"es","iso639_2":"spa","name":"Spanish","nativeName":"Español"}]},{"languages":[{"iso639_1":"es","iso639_2":"spa","name":"Spanish","nativeName":"Español"}]},{"languages":[{"iso639_1":"en","iso639_2":"eng","name":"English","nativeName":"English"},{"iso639_1":"fr","iso639_2":"fra","name":"French","nativeName":"français"}]},{"languages":[{"iso639_1":"fr","iso639_2":"fra","name":"French","nativeName":"français"},{"iso639_1":"ff","iso639_2":"ful","name":"Fula","nativeName":"Fulfulde"}]},{"languages":[{"iso639_1":"pt","iso639_2":"por","name":"Portuguese","nativeName":"Português"}]},{"languages":[{"iso639_1":"en","iso639_2":"eng","name":"English","nativeName":"English"}]},{"languages":[{"iso639_1":"fr","iso639_2":"fra","name":"French","nativeName":"français"},{"iso639_1":"ht","iso639_2":"hat","name":"Haitian","nativeName":"Kreyòl ayisyen"}]},{"languages":[{"iso639_1":"en","iso639_2":"eng","name":"English","nativeName":"English"}]},{"languages":[{"iso639_1":"la","iso639_2":"lat","name":"Latin","nativeName":"latine"},{"iso639_1":"it","iso639_2":"ita","name":"Italian","nativeName":"Italiano"},{"iso639_1":"fr","iso639_2":"fra","name":"French","nativeName":"français"},{"iso639_1":"de","iso639_2":"deu","name":"German","nativeName":"Deutsch"}]},{"languages":[{"iso639_1":"es","iso639_2":"spa","name":"Spanish","nativeName":"Español"}]},{"languages":[{"iso639_1":"en","iso639_2":"eng","name":"English","nativeName":"English"},{"iso639_1":"zh","iso639_2":"zho","name":"Chinese","nativeName":"中文 (Zhōngwén)"}]},{"languages":[{"iso639_1":"hu","iso639_2":"hun","name":"Hungarian","nativeName":"magyar"}]},{"languages":[{"iso639_1":"is","iso639_2":"isl","name":"Icelandic","nativeName":"Íslenska"}]},{"languages":[{"iso639_1":"hi","iso639_2":"hin","name":"Hindi","nativeName":"हिन्दी"},{"iso639_1":"en","iso639_2":"eng","name":"English","nativeName":"English"}]},{"languages":[{"iso639_1":"id","iso639_2":"ind","name":"Indonesian","nativeName":"Bahasa Indonesia"}]},{"languages":[{"iso639_1":"fr","iso639_2":"fra","name":"French","nativeName":"français"}]},{"languages":[{"iso639_1":"fa","iso639_2":"fas","name":"Persian (Farsi)","nativeName":"فارسی"}]},{"languages":[{"iso639_1":"ar","iso639_2":"ara","name":"Arabic","nativeName":"العربية"},{"iso639_1":"ku","iso639_2":"kur","name":"Kurdish","nativeName":"Kurdî"}]},{"languages":[{"iso639_1":"ga","iso639_2":"gle","name":"Irish","nativeName":"Gaeilge"},{"iso639_1":"en","iso639_2":"eng","name":"English","nativeName":"English"}]},{"languages":[{"iso639_1":"en","iso639_2":"eng","name":"English","nativeName":"English"},{"iso639_1":"gv","iso639_2":"glv","name":"Manx","nativeName":"Gaelg"}]},{"languages":[{"iso639_1":"he","iso639_2":"heb","name":"Hebrew (modern)","nativeName":"עברית"},{"iso639_1":"ar","iso639_2":"ara","name":"Arabic","nativeName":"العربية"}]},{"languages":[{"iso639_1":"it","iso639_2":"ita","name":"Italian","nativeName":"Italiano"}]},{"languages":[{"iso639_1":"en","iso639_2":"eng","name":"English","nativeName":"English"}]},{"languages":[{"iso639_1":"ja","iso639_2":"jpn","name":"Japanese","nativeName":"日本語 (にほんご)"}]},{"languages":[{"iso639_1":"en","iso639_2":"eng","name":"English","nativeName":"English"},{"iso639_1":"fr","iso639_2":"fra","name":"French","nativeName":"français"}]},{"languages":[{"iso639_1":"ar","iso639_2":"ara","name":"Arabic","nativeName":"العربية"}]},{"languages":[{"iso639_1":"kk","iso639_2":"kaz","name":"Kazakh","nativeName":"қазақ тілі"},{"iso639_1":"ru","iso639_2":"rus","name":"Russian","nativeName":"Русский"}]},{"languages":[{"iso639_1":"en","iso639_2":"eng","name":"English","nativeName":"English"},{"iso639_1":"sw","iso639_2":"swa","name":"Swahili","nativeName":"Kiswahili"}]},{"languages":[{"iso639_1":"en","iso639_2":"eng","name":"English","nativeName":"English"}]},{"languages":[{"iso639_1":"ar","iso639_2":"ara","name":"Arabic","nativeName":"العربية"}]},{"languages":[{"iso639_1":"ky","iso639_2":"kir","name":"Kyrgyz","nativeName":"Кыргызча"},{"iso639_1":"ru","iso639_2":"rus","name":"Russian","nativeName":"Русский"}]},{"languages":[{"iso639_1":"lo","iso639_2":"lao","name":"Lao","nativeName":"ພາສາລາວ"}]},{"languages":[{"iso639_1":"lv","iso639_2":"lav","name":"Latvian","nativeName":"latviešu valoda"}]},{"languages":[{"iso639_1":"ar","iso639_2":"ara","name":"Arabic","nativeName":"العربية"},{"iso639_1":"fr","iso639_2":"fra","name":"French","nativeName":"français"}]},{"languages":[{"iso639_1":"en","iso639_2":"eng","name":"English","nativeName":"English"},{"iso639_1":"st","iso639_2":"sot","name":"Southern Sotho","nativeName":"Sesotho"}]},{"languages":[{"iso639_1":"en","iso639_2":"eng","name":"English","nativeName":"English"}]},{"languages":[{"iso639_1":"ar","iso639_2":"ara","name":"Arabic","nativeName":"العربية"}]},{"languages":[{"iso639_1":"de","iso639_2":"deu","name":"German","nativeName":"Deutsch"}]},{"languages":[{"iso639_1":"lt","iso639_2":"lit","name":"Lithuanian","nativeName":"lietuvių kalba"}]},{"languages":[{"iso639_1":"fr","iso639_2":"fra","name":"French","nativeName":"français"},{"iso639_1":"de","iso639_2":"deu","name":"German","nativeName":"Deutsch"},{"iso639_1":"lb","iso639_2":"ltz","name":"Luxembourgish","nativeName":"Lëtzebuergesch"}]},{"languages":[{"iso639_1":"zh","iso639_2":"zho","name":"Chinese","nativeName":"中文 (Zhōngwén)"},{"iso639_1":"pt","iso639_2":"por","name":"Portuguese","nativeName":"Português"}]},{"languages":[{"iso639_1":"mk","iso639_2":"mkd","name":"Macedonian","nativeName":"македонски јазик"}]},{"languages":[{"iso639_1":"fr","iso639_2":"fra","name":"French","nativeName":"français"},{"iso639_1":"mg","iso639_2":"mlg","name":"Malagasy","nativeName":"fiteny malagasy"}]},{"languages":[{"iso639_1":"en","iso639_2":"eng","name":"English","nativeName":"English"},{"iso639_1":"ny","iso639_2":"nya","name":"Chichewa","nativeName":"chiCheŵa"}]},{"languages":[{"iso639_2":"zsm","name":"Malaysian","nativeName":"بهاس مليسيا"}]},{"languages":[{"iso639_1":"dv","iso639_2":"div","name":"Divehi","nativeName":"ދިވެހި"}]},{"languages":[{"iso639_1":"fr","iso639_2":"fra","name":"French","nativeName":"français"}]},{"languages":[{"iso639_1":"mt","iso639_2":"mlt","name":"Maltese","nativeName":"Malti"},{"iso639_1":"en","iso639_2":"eng","name":"English","nativeName":"English"}]},{"languages":[{"iso639_1":"en","iso639_2":"eng","name":"English","nativeName":"English"},{"iso639_1":"mh","iso639_2":"mah","name":"Marshallese","nativeName":"Kajin M̧ajeļ"}]},{"languages":[{"iso639_1":"fr","iso639_2":"fra","name":"French","nativeName":"français"}]},{"languages":[{"iso639_1":"ar","iso639_2":"ara","name":"Arabic","nativeName":"العربية"}]},{"languages":[{"iso639_1":"en","iso639_2":"eng","name":"English","nativeName":"English"}]},{"languages":[{"iso639_1":"fr","iso639_2":"fra","name":"French","nativeName":"français"}]},{"languages":[{"iso639_1":"es","iso639_2":"spa","name":"Spanish","nativeName":"Español"}]},{"languages":[{"iso639_1":"en","iso639_2":"eng","name":"English","nativeName":"English"}]},{"languages":[{"iso639_1":"ro","iso639_2":"ron","name":"Romanian","nativeName":"Română"}]},{"languages":[{"iso639_1":"fr","iso639_2":"fra","name":"French","nativeName":"français"}]},{"languages":[{"iso639_1":"mn","iso639_2":"mon","name":"Mongolian","nativeName":"Монгол хэл"}]},{"languages":[{"iso639_1":"sr","iso639_2":"srp","name":"Serbian","nativeName":"српски језик"},{"iso639_1":"bs","iso639_2":"bos","name":"Bosnian","nativeName":"bosanski jezik"},{"iso639_1":"sq","iso639_2":"sqi","name":"Albanian","nativeName":"Shqip"},{"iso639_1":"hr","iso639_2":"hrv","name":"Croatian","nativeName":"hrvatski jezik"}]},{"languages":[{"iso639_1":"en","iso639_2":"eng","name":"English","nativeName":"English"}]},{"languages":[{"iso639_1":"ar","iso639_2":"ara","name":"Arabic","nativeName":"العربية"}]},{"languages":[{"iso639_1":"pt","iso639_2":"por","name":"Portuguese","nativeName":"Português"}]},{"languages":[{"iso639_1":"my","iso639_2":"mya","name":"Burmese","nativeName":"ဗမာစာ"}]},{"languages":[{"iso639_1":"en","iso639_2":"eng","name":"English","nativeName":"English"},{"iso639_1":"af","iso639_2":"afr","name":"Afrikaans","nativeName":"Afrikaans"}]},{"languages":[{"iso639_1":"en","iso639_2":"eng","name":"English","nativeName":"English"},{"iso639_1":"na","iso639_2":"nau","name":"Nauruan","nativeName":"Dorerin Naoero"}]},{"languages":[{"iso639_1":"ne","iso639_2":"nep","name":"Nepali","nativeName":"नेपाली"}]},{"languages":[{"iso639_1":"nl","iso639_2":"nld","name":"Dutch","nativeName":"Nederlands"}]},{"languages":[{"iso639_1":"fr","iso639_2":"fra","name":"French","nativeName":"français"}]},{"languages":[{"iso639_1":"en","iso639_2":"eng","name":"English","nativeName":"English"},{"iso639_1":"mi","iso639_2":"mri","name":"Māori","nativeName":"te reo Māori"}]},{"languages":[{"iso639_1":"es","iso639_2":"spa","name":"Spanish","nativeName":"Español"}]},{"languages":[{"iso639_1":"fr","iso639_2":"fra","name":"French","nativeName":"français"}]},{"languages":[{"iso639_1":"en","iso639_2":"eng","name":"English","nativeName":"English"}]},{"languages":[{"iso639_1":"en","iso639_2":"eng","name":"English","nativeName":"English"}]},{"languages":[{"iso639_1":"en","iso639_2":"eng","name":"English","nativeName":"English"}]},{"languages":[{"iso639_1":"ko","iso639_2":"kor","name":"Korean","nativeName":"한국어"}]},{"languages":[{"iso639_1":"en","iso639_2":"eng","name":"English","nativeName":"English"},{"iso639_1":"ch","iso639_2":"cha","name":"Chamorro","nativeName":"Chamoru"}]},{"languages":[{"iso639_1":"no","iso639_2":"nor","name":"Norwegian","nativeName":"Norsk"},{"iso639_1":"nb","iso639_2":"nob","name":"Norwegian Bokmål","nativeName":"Norsk bokmål"},{"iso639_1":"nn","iso639_2":"nno","name":"Norwegian Nynorsk","nativeName":"Norsk nynorsk"}]},{"languages":[{"iso639_1":"ar","iso639_2":"ara","name":"Arabic","nativeName":"العربية"}]},{"languages":[{"iso639_1":"en","iso639_2":"eng","name":"English","nativeName":"English"},{"iso639_1":"ur","iso639_2":"urd","name":"Urdu","nativeName":"اردو"}]},{"languages":[{"iso639_1":"en","iso639_2":"eng","name":"English","nativeName":"English"}]},{"languages":[{"iso639_1":"ar","iso639_2":"ara","name":"Arabic","nativeName":"العربية"}]},{"languages":[{"iso639_1":"es","iso639_2":"spa","name":"Spanish","nativeName":"Español"}]},{"languages":[{"iso639_1":"en","iso639_2":"eng","name":"English","nativeName":"English"}]},{"languages":[{"iso639_1":"es","iso639_2":"spa","name":"Spanish","nativeName":"Español"},{"iso639_1":"gn","iso639_2":"grn","name":"Guaraní","nativeName":"Avañe'ẽ"}]},{"languages":[{"iso639_1":"es","iso639_2":"spa","name":"Spanish","nativeName":"Español"}]},{"languages":[{"iso639_1":"en","iso639_2":"eng","name":"English","nativeName":"English"}]},{"languages":[{"iso639_1":"en","iso639_2":"eng","name":"English","nativeName":"English"}]},{"languages":[{"iso639_1":"pl","iso639_2":"pol","name":"Polish","nativeName":"język polski"}]},{"languages":[{"iso639_1":"pt","iso639_2":"por","name":"Portuguese","nativeName":"Português"}]},{"languages":[{"iso639_1":"es","iso639_2":"spa","name":"Spanish","nativeName":"Español"},{"iso639_1":"en","iso639_2":"eng","name":"English","nativeName":"English"}]},{"languages":[{"iso639_1":"ar","iso639_2":"ara","name":"Arabic","nativeName":"العربية"}]},{"languages":[{"iso639_1":"sq","iso639_2":"sqi","name":"Albanian","nativeName":"Shqip"},{"iso639_1":"sr","iso639_2":"srp","name":"Serbian","nativeName":"српски језик"}]},{"languages":[{"iso639_1":"fr","iso639_2":"fra","name":"French","nativeName":"français"}]},{"languages":[{"iso639_1":"ro","iso639_2":"ron","name":"Romanian","nativeName":"Română"}]},{"languages":[{"iso639_1":"ru","iso639_2":"rus","name":"Russian","nativeName":"Русский"}]},{"languages":[{"iso639_1":"rw","iso639_2":"kin","name":"Kinyarwanda","nativeName":"Ikinyarwanda"},{"iso639_1":"en","iso639_2":"eng","name":"English","nativeName":"English"},{"iso639_1":"fr","iso639_2":"fra","name":"French","nativeName":"français"}]},{"languages":[{"iso639_1":"fr","iso639_2":"fra","name":"French","nativeName":"français"}]},{"languages":[{"iso639_1":"en","iso639_2":"eng","name":"English","nativeName":"English"}]},{"languages":[{"iso639_1":"en","iso639_2":"eng","name":"English","nativeName":"English"}]},{"languages":[{"iso639_1":"en","iso639_2":"eng","name":"English","nativeName":"English"}]},{"languages":[{"iso639_1":"en","iso639_2":"eng","name":"English","nativeName":"English"},{"iso639_1":"fr","iso639_2":"fra","name":"French","nativeName":"français"},{"iso639_1":"nl","iso639_2":"nld","name":"Dutch","nativeName":"Nederlands"}]},{"languages":[{"iso639_1":"fr","iso639_2":"fra","name":"French","nativeName":"français"}]},{"languages":[{"iso639_1":"en","iso639_2":"eng","name":"English","nativeName":"English"}]},{"languages":[{"iso639_1":"sm","iso639_2":"smo","name":"Samoan","nativeName":"gagana fa'a Samoa"},{"iso639_1":"en","iso639_2":"eng","name":"English","nativeName":"English"}]},{"languages":[{"iso639_1":"it","iso639_2":"ita","name":"Italian","nativeName":"Italiano"}]},{"languages":[{"iso639_1":"pt","iso639_2":"por","name":"Portuguese","nativeName":"Português"}]},{"languages":[{"iso639_1":"ar","iso639_2":"ara","name":"Arabic","nativeName":"العربية"}]},{"languages":[{"iso639_1":"fr","iso639_2":"fra","name":"French","nativeName":"français"}]},{"languages":[{"iso639_1":"sr","iso639_2":"srp","name":"Serbian","nativeName":"српски језик"}]},{"languages":[{"iso639_1":"fr","iso639_2":"fra","name":"French","nativeName":"français"},{"iso639_1":"en","iso639_2":"eng","name":"English","nativeName":"English"}]},{"languages":[{"iso639_1":"en","iso639_2":"eng","name":"English","nativeName":"English"}]},{"languages":[{"iso639_1":"en","iso639_2":"eng","name":"English","nativeName":"English"},{"iso639_1":"ms","iso639_2":"msa","name":"Malay","nativeName":"bahasa Melayu"},{"iso639_1":"ta","iso639_2":"tam","name":"Tamil","nativeName":"தமிழ்"},{"iso639_1":"zh","iso639_2":"zho","name":"Chinese","nativeName":"中文 (Zhōngwén)"}]},{"languages":[{"iso639_1":"nl","iso639_2":"nld","name":"Dutch","nativeName":"Nederlands"},{"iso639_1":"en","iso639_2":"eng","name":"English","nativeName":"English"}]},{"languages":[{"iso639_1":"sk","iso639_2":"slk","name":"Slovak","nativeName":"slovenčina"}]},{"languages":[{"iso639_1":"sl","iso639_2":"slv","name":"Slovene","nativeName":"slovenski jezik"}]},{"languages":[{"iso639_1":"en","iso639_2":"eng","name":"English","nativeName":"English"}]},{"languages":[{"iso639_1":"so","iso639_2":"som","name":"Somali","nativeName":"Soomaaliga"},{"iso639_1":"ar","iso639_2":"ara","name":"Arabic","nativeName":"العربية"}]},{"languages":[{"iso639_1":"af","iso639_2":"afr","name":"Afrikaans","nativeName":"Afrikaans"},{"iso639_1":"en","iso639_2":"eng","name":"English","nativeName":"English"},{"iso639_1":"nr","iso639_2":"nbl","name":"Southern Ndebele","nativeName":"isiNdebele"},{"iso639_1":"st","iso639_2":"sot","name":"Southern Sotho","nativeName":"Sesotho"},{"iso639_1":"ss","iso639_2":"ssw","name":"Swati","nativeName":"SiSwati"},{"iso639_1":"tn","iso639_2":"tsn","name":"Tswana","nativeName":"Setswana"},{"iso639_1":"ts","iso639_2":"tso","name":"Tsonga","nativeName":"Xitsonga"},{"iso639_1":"ve","iso639_2":"ven","name":"Venda","nativeName":"Tshivenḓa"},{"iso639_1":"xh","iso639_2":"xho","name":"Xhosa","nativeName":"isiXhosa"},{"iso639_1":"zu","iso639_2":"zul","name":"Zulu","nativeName":"isiZulu"}]},{"languages":[{"iso639_1":"en","iso639_2":"eng","name":"English","nativeName":"English"}]},{"languages":[{"iso639_1":"ko","iso639_2":"kor","name":"Korean","nativeName":"한국어"}]},{"languages":[{"iso639_1":"en","iso639_2":"eng","name":"English","nativeName":"English"}]},{"languages":[{"iso639_1":"es","iso639_2":"spa","name":"Spanish","nativeName":"Español"}]},{"languages":[{"iso639_1":"si","iso639_2":"sin","name":"Sinhalese","nativeName":"සිංහල"},{"iso639_1":"ta","iso639_2":"tam","name":"Tamil","nativeName":"தமிழ்"}]},{"languages":[{"iso639_1":"ar","iso639_2":"ara","name":"Arabic","nativeName":"العربية"},{"iso639_1":"en","iso639_2":"eng","name":"English","nativeName":"English"}]},{"languages":[{"iso639_1":"nl","iso639_2":"nld","name":"Dutch","nativeName":"Nederlands"}]},{"languages":[{"iso639_1":"no","iso639_2":"nor","name":"Norwegian","nativeName":"Norsk"}]},{"languages":[{"iso639_1":"en","iso639_2":"eng","name":"English","nativeName":"English"},{"iso639_1":"ss","iso639_2":"ssw","name":"Swati","nativeName":"SiSwati"}]},{"languages":[{"iso639_1":"sv","iso639_2":"swe","name":"Swedish","nativeName":"svenska"}]},{"languages":[{"iso639_1":"de","iso639_2":"deu","name":"German","nativeName":"Deutsch"},{"iso639_1":"fr","iso639_2":"fra","name":"French","nativeName":"français"},{"iso639_1":"it","iso639_2":"ita","name":"Italian","nativeName":"Italiano"}]},{"languages":[{"iso639_1":"ar","iso639_2":"ara","name":"Arabic","nativeName":"العربية"}]},{"languages":[{"iso639_1":"zh","iso639_2":"zho","name":"Chinese","nativeName":"中文 (Zhōngwén)"}]},{"languages":[{"iso639_1":"tg","iso639_2":"tgk","name":"Tajik","nativeName":"тоҷикӣ"},{"iso639_1":"ru","iso639_2":"rus","name":"Russian","nativeName":"Русский"}]},{"languages":[{"iso639_1":"sw","iso639_2":"swa","name":"Swahili","nativeName":"Kiswahili"},{"iso639_1":"en","iso639_2":"eng","name":"English","nativeName":"English"}]},{"languages":[{"iso639_1":"th","iso639_2":"tha","name":"Thai","nativeName":"ไทย"}]},{"languages":[{"iso639_1":"pt","iso639_2":"por","name":"Portuguese","nativeName":"Português"}]},{"languages":[{"iso639_1":"fr","iso639_2":"fra","name":"French","nativeName":"français"}]},{"languages":[{"iso639_1":"en","iso639_2":"eng","name":"English","nativeName":"English"}]},{"languages":[{"iso639_1":"en","iso639_2":"eng","name":"English","nativeName":"English"},{"iso639_1":"to","iso639_2":"ton","name":"Tonga (Tonga Islands)","nativeName":"faka Tonga"}]},{"languages":[{"iso639_1":"en","iso639_2":"eng","name":"English","nativeName":"English"}]},{"languages":[{"iso639_1":"ar","iso639_2":"ara","name":"Arabic","nativeName":"العربية"}]},{"languages":[{"iso639_1":"tr","iso639_2":"tur","name":"Turkish","nativeName":"Türkçe"}]},{"languages":[{"iso639_1":"tk","iso639_2":"tuk","name":"Turkmen","nativeName":"Türkmen"},{"iso639_1":"ru","iso639_2":"rus","name":"Russian","nativeName":"Русский"}]},{"languages":[{"iso639_1":"en","iso639_2":"eng","name":"English","nativeName":"English"}]},{"languages":[{"iso639_1":"en","iso639_2":"eng","name":"English","nativeName":"English"}]},{"languages":[{"iso639_1":"en","iso639_2":"eng","name":"English","nativeName":"English"},{"iso639_1":"sw","iso639_2":"swa","name":"Swahili","nativeName":"Kiswahili"}]},{"languages":[{"iso639_1":"uk","iso639_2":"ukr","name":"Ukrainian","nativeName":"Українська"}]},{"languages":[{"iso639_1":"ar","iso639_2":"ara","name":"Arabic","nativeName":"العربية"}]},{"languages":[{"iso639_1":"en","iso639_2":"eng","name":"English","nativeName":"English"}]},{"languages":[{"iso639_1":"en","iso639_2":"eng","name":"English","nativeName":"English"}]},{"languages":[{"iso639_1":"es","iso639_2":"spa","name":"Spanish","nativeName":"Español"}]},{"languages":[{"iso639_1":"uz","iso639_2":"uzb","name":"Uzbek","nativeName":"Oʻzbek"},{"iso639_1":"ru","iso639_2":"rus","name":"Russian","nativeName":"Русский"}]},{"languages":[{"iso639_1":"bi","iso639_2":"bis","name":"Bislama","nativeName":"Bislama"},{"iso639_1":"en","iso639_2":"eng","name":"English","nativeName":"English"},{"iso639_1":"fr","iso639_2":"fra","name":"French","nativeName":"français"}]},{"languages":[{"iso639_1":"es","iso639_2":"spa","name":"Spanish","nativeName":"Español"}]},{"languages":[{"iso639_1":"vi","iso639_2":"vie","name":"Vietnamese","nativeName":"Tiếng Việt"}]},{"languages":[{"iso639_1":"fr","iso639_2":"fra","name":"French","nativeName":"français"}]},{"languages":[{"iso639_1":"es","iso639_2":"spa","name":"Spanish","nativeName":"Español"}]},{"languages":[{"iso639_1":"ar","iso639_2":"ara","name":"Arabic","nativeName":"العربية"}]},{"languages":[{"iso639_1":"en","iso639_2":"eng","name":"English","nativeName":"English"}]},{"languages":[{"iso639_1":"en","iso639_2":"eng","name":"English","nativeName":"English"},{"iso639_1":"sn","iso639_2":"sna","name":"Shona","nativeName":"chiShona"},{"iso639_1":"nd","iso639_2":"nde","name":"Northern Ndebele","nativeName":"isiNdebele"}]}]